[{"OBJECT_NAME":"IRIDIUM 152","OBJECT_ID":"2018-047D","EPOCH":"2026-04-04T13:34:46.165440","MEAN_MOTION":14.34217584,"ECCENTRICITY":0.0002022,"INCLINATION":86.3934,"RA_OF_ASC_NODE":119.1248,"ARG_OF_PERICENTER":91.2991,"MEAN_ANOMALY":268.8437,"EPHEMERIS_TYPE":0,"CLASSIFICATION_TYPE":"U","NORAD_CAT_ID":43479,"ELEMENT_SET_NO":999,"REV_AT_EPOCH":41193,"BSTAR":-7.4289e-6,"MEAN_MOTION_DOT":-1.0e-8,"MEAN_MOTION_DDOT":0},{"OBJECT_NAME":"IRIDIUM 147","OBJECT_ID":"2018-047E","EPOCH":"2026-04-04T12:03:26.249760","MEAN_MOTION":14.34218052,"ECCENTRICITY":0.00023677,"INCLINATION":86.3932,"RA_OF_ASC_NODE":119.1555,"ARG_OF_PERICENTER":92.7644,"MEAN_ANOMALY":267.3823,"EPHEMERIS_TYPE":0,"CLASSIFICATION_TYPE":"U","NORAD_CAT_ID":43480,"ELEMENT_SET_NO":999,"REV_AT_EPOCH":41192,"BSTAR":1.9157774e-5,"MEAN_MOTION_DOT":7.3e-7,"MEAN_MOTION_DDOT":0},{"OBJECT_NAME":"IRIDIUM 110","OBJECT_ID":"2018-047F","EPOCH":"2026-04-04T12:12:34.166592","MEAN_MOTION":14.34217817,"ECCENTRICITY":0.0001985,"INCLINATION":86.3934,"RA_OF_ASC_NODE":119.2427,"ARG_OF_PERICENTER":85.3511,"MEAN_ANOMALY":274.7911,"EPHEMERIS_TYPE":0,"CLASSIFICATION_TYPE":"U","NORAD_CAT_ID":43481,"ELEMENT_SET_NO":999,"REV_AT_EPOCH":41191,"BSTAR":4.779001e-6,"MEAN_MOTION_DOT":3.3e-7,"MEAN_MOTION_DDOT":0},{"OBJECT_NAME":"IRIDIUM 162","OBJECT_ID":"2018-047G","EPOCH":"2026-04-04T14:27:49.613184","MEAN_MOTION":14.43277047,"ECCENTRICITY":0.0002235,"INCLINATION":86.4454,"RA_OF_ASC_NODE":119.141,"ARG_OF_PERICENTER":95.0083,"MEAN_ANOMALY":265.1374,"EPHEMERIS_TYPE":0,"CLASSIFICATION_TYPE":"U","NORAD_CAT_ID":43482,"ELEMENT_SET_NO":999,"REV_AT_EPOCH":41451,"BSTAR":5.9976e-5,"MEAN_MOTION_DOT":2.22e-6,"MEAN_MOTION_DDOT":0},{"OBJECT_NAME":"IRIDIUM 160","OBJECT_ID":"2018-061A","EPOCH":"2026-04-03T23:11:18.413376","MEAN_MOTION":14.34217811,"ECCENTRICITY":0.00022267,"INCLINATION":86.3913,"RA_OF_ASC_NODE":87.8349,"ARG_OF_PERICENTER":86.5617,"MEAN_ANOMALY":273.5834,"EPHEMERIS_TYPE":0,"CLASSIFICATION_TYPE":"U","NORAD_CAT_ID":43569,"ELEMENT_SET_NO":999,"REV_AT_EPOCH":40273,"BSTAR":6.437294e-6,"MEAN_MOTION_DOT":3.8e-7,"MEAN_MOTION_DDOT":0},{"OBJECT_NAME":"IRIDIUM 166","OBJECT_ID":"2018-061B","EPOCH":"2026-04-04T01:28:18.480000","MEAN_MOTION":14.34217674,"ECCENTRICITY":0.00023547,"INCLINATION":86.3911,"RA_OF_ASC_NODE":87.7464,"ARG_OF_PERICENTER":90.2623,"MEAN_ANOMALY":269.8843,"EPHEMERIS_TYPE":0,"CLASSIFICATION_TYPE":"U","NORAD_CAT_ID":43570,"ELEMENT_SET_NO":999,"REV_AT_EPOCH":40277,"BSTAR":-2.873286e-6,"MEAN_MOTION_DOT":1.2e-7,"MEAN_MOTION_DDOT":0},{"OBJECT_NAME":"IRIDIUM 158","OBJECT_ID":"2018-061C","EPOCH":"2026-04-04T05:44:02.410656","MEAN_MOTION":14.34217174,"ECCENTRICITY":0.00019915,"INCLINATION":86.391,"RA_OF_ASC_NODE":87.6822,"ARG_OF_PERICENTER":92.1247,"MEAN_ANOMALY":268.0177,"EPHEMERIS_TYPE":0,"CLASSIFICATION_TYPE":"U","NORAD_CAT_ID":43571,"ELEMENT_SET_NO":999,"REV_AT_EPOCH":40276,"BSTAR":-2.0139997e-5,"MEAN_MOTION_DOT":-3.7e-7,"MEAN_MOTION_DDOT":0},{"OBJECT_NAME":"IRIDIUM 165","OBJECT_ID":"2018-061D","EPOCH":"2026-04-04T01:19:10.400736","MEAN_MOTION":14.34217029,"ECCENTRICITY":0.0002272,"INCLINATION":86.3915,"RA_OF_ASC_NODE":87.8043,"ARG_OF_PERICENTER":89.897,"MEAN_ANOMALY":270.2486,"EPHEMERIS_TYPE":0,"CLASSIFICATION_TYPE":"U","NORAD_CAT_ID":43572,"ELEMENT_SET_NO":999,"REV_AT_EPOCH":40276,"BSTAR":-2.9023647e-5,"MEAN_MOTION_DOT":-6.1e-7,"MEAN_MOTION_DDOT":0},{"OBJECT_NAME":"IRIDIUM 155","OBJECT_ID":"2018-061E","EPOCH":"2026-04-04T05:25:46.389504","MEAN_MOTION":14.34217419,"ECCENTRICITY":0.0002136,"INCLINATION":86.3909,"RA_OF_ASC_NODE":87.6052,"ARG_OF_PERICENTER":93.7448,"MEAN_ANOMALY":266.3992,"EPHEMERIS_TYPE":0,"CLASSIFICATION_TYPE":"U","NORAD_CAT_ID":43573,"ELEMENT_SET_NO":999,"REV_AT_EPOCH":40275,"BSTAR":-1.2453961e-5,"MEAN_MOTION_DOT":-1.5e-7,"MEAN_MOTION_DDOT":0},{"OBJECT_NAME":"IRIDIUM 154","OBJECT_ID":"2018-061F","EPOCH":"2026-04-04T01:37:26.450400","MEAN_MOTION":14.34217575,"ECCENTRICITY":0.00023103,"INCLINATION":86.3912,"RA_OF_ASC_NODE":87.8015,"ARG_OF_PERICENTER":89.7259,"MEAN_ANOMALY":270.4201,"EPHEMERIS_TYPE":0,"CLASSIFICATION_TYPE":"U","NORAD_CAT_ID":43574,"ELEMENT_SET_NO":999,"REV_AT_EPOCH":40278,"BSTAR":-5.390269e-6,"MEAN_MOTION_DOT":5.0e-8,"MEAN_MOTION_DDOT":0},{"OBJECT_NAME":"IRIDIUM 163","OBJECT_ID":"2018-061G","EPOCH":"2026-04-04T11:12:50.370624","MEAN_MOTION":14.34217608,"ECCENTRICITY":0.00021324,"INCLINATION":86.3911,"RA_OF_ASC_NODE":87.5516,"ARG_OF_PERICENTER":90.3085,"MEAN_ANOMALY":269.8355,"EPHEMERIS_TYPE":0,"CLASSIFICATION_TYPE":"U","NORAD_CAT_ID":43575,"ELEMENT_SET_NO":999,"REV_AT_EPOCH":40281,"BSTAR":-2.560995e-6,"MEAN_MOTION_DOT":1.3e-7,"MEAN_MOTION_DDOT":0},{"OBJECT_NAME":"IRIDIUM 156","OBJECT_ID":"2018-061H","EPOCH":"2026-04-04T00:33:30.128832","MEAN_MOTION":14.342192,"ECCENTRICITY":0.00022605,"INCLINATION":86.3907,"RA_OF_ASC_NODE":87.7446,"ARG_OF_PERICENTER":94.3742,"MEAN_ANOMALY":265.7712,"EPHEMERIS_TYPE":0,"CLASSIFICATION_TYPE":"U","NORAD_CAT_ID":43576,"ELEMENT_SET_NO":999,"REV_AT_EPOCH":40274,"BSTAR":3.722319e-5,"MEAN_MOTION_DOT":1.24e-6,"MEAN_MOTION_DDOT":0},{"OBJECT_NAME":"IRIDIUM 164","OBJECT_ID":"2018-061J","EPOCH":"2026-04-04T05:07:30.363168","MEAN_MOTION":14.34218007,"ECCENTRICITY":0.00023949,"INCLINATION":86.3908,"RA_OF_ASC_NODE":87.7041,"ARG_OF_PERICENTER":87.1409,"MEAN_ANOMALY":273.0061,"EPHEMERIS_TYPE":0,"CLASSIFICATION_TYPE":"U","NORAD_CAT_ID":43577,"ELEMENT_SET_NO":999,"REV_AT_EPOCH":40281,"BSTAR":5.185756e-6,"MEAN_MOTION_DOT":3.4e-7,"MEAN_MOTION_DDOT":0},{"OBJECT_NAME":"IRIDIUM 159","OBJECT_ID":"2018-061K","EPOCH":"2026-04-04T12:44:10.350240","MEAN_MOTION":14.34217805,"ECCENTRICITY":0.0002145,"INCLINATION":86.391,"RA_OF_ASC_NODE":87.5099,"ARG_OF_PERICENTER":86.3379,"MEAN_ANOMALY":273.8062,"EPHEMERIS_TYPE":0,"CLASSIFICATION_TYPE":"U","NORAD_CAT_ID":43578,"ELEMENT_SET_NO":999,"REV_AT_EPOCH":40282,"BSTAR":1.9896e-6,"MEAN_MOTION_DOT":2.5e-7,"MEAN_MOTION_DDOT":0},{"OBJECT_NAME":"IRIDIUM 180","OBJECT_ID":"2019-002A","EPOCH":"2026-04-04T06:01:34.843008","MEAN_MOTION":14.34219493,"ECCENTRICITY":0.00021535,"INCLINATION":86.4014,"RA_OF_ASC_NODE":24.4867,"ARG_OF_PERICENTER":82.8612,"MEAN_ANOMALY":277.2828,"EPHEMERIS_TYPE":0,"CLASSIFICATION_TYPE":"U","NORAD_CAT_ID":43922,"ELEMENT_SET_NO":999,"REV_AT_EPOCH":37839,"BSTAR":0.00013826768,"MEAN_MOTION_DOT":4.07e-6,"MEAN_MOTION_DDOT":0},{"OBJECT_NAME":"IRIDIUM 176","OBJECT_ID":"2019-002B","EPOCH":"2026-04-04T06:40:26.954400","MEAN_MOTION":14.72252667,"ECCENTRICITY":0.0002643,"INCLINATION":86.6136,"RA_OF_ASC_NODE":24.4292,"ARG_OF_PERICENTER":85.2127,"MEAN_ANOMALY":274.9392,"EPHEMERIS_TYPE":0,"CLASSIFICATION_TYPE":"U","NORAD_CAT_ID":43923,"ELEMENT_SET_NO":999,"REV_AT_EPOCH":38837,"BSTAR":0.00030398342,"MEAN_MOTION_DOT":1.942e-5,"MEAN_MOTION_DDOT":0},{"OBJECT_NAME":"IRIDIUM 168","OBJECT_ID":"2019-002C","EPOCH":"2026-04-04T05:52:26.648832","MEAN_MOTION":14.34220122,"ECCENTRICITY":0.00021315,"INCLINATION":86.4018,"RA_OF_ASC_NODE":24.5646,"ARG_OF_PERICENTER":85.4609,"MEAN_ANOMALY":274.683,"EPHEMERIS_TYPE":0,"CLASSIFICATION_TYPE":"U","NORAD_CAT_ID":43924,"ELEMENT_SET_NO":999,"REV_AT_EPOCH":37837,"BSTAR":0.00013875072,"MEAN_MOTION_DOT":4.08e-6,"MEAN_MOTION_DDOT":0}]
