IRIDIUM 152             
1 43479U 18047D   26094.56581210 -.00000001  00000+0 -74289-5 0  9993
2 43479  86.3934 119.1248 0002022  91.2991 268.8437 14.34217584411930
IRIDIUM 147             
1 43480U 18047E   26094.50238715  .00000073  00000+0  19158-4 0  9998
2 43480  86.3932 119.1555 0002367  92.7644 267.3823 14.34218052411927
IRIDIUM 110             
1 43481U 18047F   26094.50872878  .00000033  00000+0  47790-5 0  9993
2 43481  86.3934 119.2427 0001985  85.3511 274.7911 14.34217817411912
IRIDIUM 162             
1 43482U 18047G   26094.60265756  .00000222  00000+0  59976-4 0  9994
2 43482  86.4454 119.1410 0002235  95.0083 265.1374 14.43277047414510
IRIDIUM 160             
1 43569U 18061A   26093.96618534  .00000038  00000+0  64373-5 0  9993
2 43569  86.3913  87.8349 0002226  86.5617 273.5834 14.34217811402733
IRIDIUM 166             
1 43570U 18061B   26094.06132500  .00000012  00000+0 -28733-5 0  9994
2 43570  86.3911  87.7464 0002354  90.2623 269.8843 14.34217674402770
IRIDIUM 158             
1 43571U 18061C   26094.23891679 -.00000037  00000+0 -20140-4 0  9994
2 43571  86.3910  87.6822 0001991  92.1247 268.0177 14.34217174402761
IRIDIUM 165             
1 43572U 18061D   26094.05498149 -.00000061  00000+0 -29024-4 0  9997
2 43572  86.3915  87.8043 0002272  89.8970 270.2486 14.34217029402760
IRIDIUM 155             
1 43573U 18061E   26094.22623136 -.00000015  00000+0 -12454-4 0  9991
2 43573  86.3909  87.6052 0002136  93.7448 266.3992 14.34217419402755
IRIDIUM 154             
1 43574U 18061F   26094.06766725  .00000005  00000+0 -53903-5 0  9999
2 43574  86.3912  87.8015 0002310  89.7259 270.4201 14.34217575402785
IRIDIUM 163             
1 43575U 18061G   26094.46724966  .00000013  00000+0 -25610-5 0  9998
2 43575  86.3911  87.5516 0002132  90.3085 269.8355 14.34217608402818
IRIDIUM 156             
1 43576U 18061H   26094.02326538  .00000124  00000+0  37223-4 0  9998
2 43576  86.3907  87.7446 0002260  94.3742 265.7712 14.34219200402748
IRIDIUM 164             
1 43577U 18061J   26094.21354587  .00000034  00000+0  51858-5 0  9996
2 43577  86.3908  87.7041 0002394  87.1409 273.0061 14.34218007402810
IRIDIUM 159             
1 43578U 18061K   26094.53067535  .00000025  00000+0  19896-5 0  9992
2 43578  86.3910  87.5099 0002145  86.3379 273.8062 14.34217805402821
IRIDIUM 180             
1 43922U 19002A   26094.25109772  .00000407  00000+0  13827-3 0  9990
2 43922  86.4014  24.4867 0002153  82.8612 277.2828 14.34219493378390
IRIDIUM 176             
1 43923U 19002B   26094.27808975  .00001942  00000+0  30398-3 0  9991
2 43923  86.6136  24.4292 0002643  85.2127 274.9392 14.72252667388373
IRIDIUM 168             
1 43924U 19002C   26094.24475288  .00000408  00000+0  13875-3 0  9993
2 43924  86.4018  24.5646 0002131  85.4609 274.6830 14.34220122378376
